FLOCK 4P-3              
1 44812U 19081J   22339.67737263  .00044419  00000+0  11606-2 0  9995
2 44812  97.3856  45.3305 0006756 322.7952  37.2824 15.38623164168159
FLOCK 4P-1              
1 44814U 19081L   22339.76047781  .00049127  00000+0  14726-2 0  9993
2 44814  97.3822  43.8804 0007356 335.8695  24.2203 15.34305224168086
FLOCK 4P-7              
1 44816U 19081N   22339.66915036  .00014533  00000+0  43548-3 0  9999
2 44816  97.3820  44.0735 0006211 324.8612  35.2220 15.34587216168093
FLOCK 4P-5              
1 44818U 19081Q   22339.92713245  .00013626  00000+0  42741-3 0  9994
2 44818  97.3824  44.3693 0006869 334.4556  25.6346 15.33143953168130
SKYSAT-C14              
1 45788U 20038BL  22339.83657785  .00034584  00000+0  39428-3 0  9995
2 45788  52.9893 210.1650 0009806 326.4388  33.6002 15.61878483141418
SKYSAT-C16              
1 45789U 20038BM  22340.36707714  .00032295  00000+0  35980-3 0  9990
2 45789  52.9904 207.1404 0006827 334.8136  25.2542 15.62537832141494
SKYSAT-C15              
1 45790U 20038BN  22339.82728208  .00033397  00000+0  39530-3 0  9991
2 45790  52.9883 210.0586 0007388 329.2106  30.8472 15.60945400141401
SKYSAT-C17              
1 46179U 20057BQ  22339.52474068  .00043001  00000+0  49843-3 0  9994
2 46179  52.9893 304.5739 0002511   1.5116 358.5904 15.61395198131950
SKYSAT-C18              
1 46180U 20057BR  22339.90953218  .00008928  00000+0  10000-3 0  9999
2 46180  52.9895 302.2541 0004776  39.0515 320.9178 15.63578237130723
SKYSAT-C19              
1 46235U 20057BS  22339.45761759  .00037423  00000+0  47881-3 0  9996
2 46235  52.9867 301.6659 0001134 280.7326  79.3557 15.58867161130699
FLOCK 4V-11             
1 46285U 20061P   22340.42828500  .00013787  00000+0  68905-3 0  9990
2 46285  97.4308  47.1069 0004190  41.9710 318.1845 15.17563208124545
FLOCK 4V-14             
1 46286U 20061Q   22339.75973305  .00006733  00000+0  33913-3 0  9993
2 46286  97.4314  46.4785 0003840  37.8508 322.2995 15.17500982124441
FLOCK 4V-8              
1 46288U 20061S   22340.14701151  .00006309  00000+0  31786-3 0  9993
2 46288  97.4309  46.8526 0003479  53.2523 306.9029 15.17514028124411
FLOCK 4V-6              
1 46289U 20061T   22339.74280722  .00007813  00000+0  39284-3 0  9996
2 46289  97.4324  46.5230 0003002  76.9532 283.2037 15.17509060124441
FLOCK 4V-5              
1 46290U 20061U   22339.73184975  .00005411  00000+0  29678-3 0  9998
2 46290  97.4319  45.8976 0003632  61.9362 298.2237 15.14568470124401
FLOCK 4V-7              
1 46291U 20061V   22340.18068765  .00015549  00000+0  77829-3 0  9992
2 46291  97.4315  46.9894 0003131  55.8584 304.2946 15.17485359124403
FLOCK 4V-10             
1 46296U 20061AA  22339.93253734  .00013868  00000+0  69739-3 0  9993
2 46296  97.4320  46.9107 0001167  69.2502 290.8857 15.17351622124447
FLOCK 4V-13             
1 46297U 20061AB  22339.72749123  .00016713  00000+0  83750-3 0  9994
2 46297  97.4323  46.7270 0001323  63.7595 296.3775 15.17432846124397
FLOCK 4V-1              
1 46313U 20061AT  22340.43699039  .00008109  00000+0  40797-3 0  9997
2 46313  97.4328  47.7857 0001548 330.5022  29.6124 15.17477651124536
FLOCK 4V-4              
1 46314U 20061AU  22339.94079787  .00012099  00000+0  60963-3 0  9994
2 46314  97.4325  47.2226 0002204 325.7023  34.4067 15.17313894124501
FLOCK 4V-2              
1 46321U 20061BB  22340.42972657  .00010552  00000+0  49866-3 0  9996
2 46321  97.4323  48.5548 0001735 314.4233  45.6859 15.19585488124510
FLOCK 4V-16             
1 46527U 20061BD  22340.44878680  .00019412  00000+0  77655-3 0  9998
2 46527  97.3826  48.7476 0005658 225.8475 134.2298 15.25112420121055
FLOCK 4V-15             
1 46528U 20061BE  22339.93421633  .00016174  00000+0  64606-3 0  9997
2 46528  97.3810  48.6502 0001300 267.4711  92.6378 15.25213414121368
FLOCK 4V-17             
1 46529U 20061BF  22340.16416867  .00013108  00000+0  52398-3 0  9997
2 46529  97.3772  48.4922 0001315 232.4346 127.6773 15.25236428120594
FLOCK 4V-18             
1 46597U 20061BG  22340.46791660  .00012566  00000+0  50224-3 0  9995
2 46597  97.3880  49.4590 0005053 237.1952 122.8799 15.25241600120008
FLOCK 4V-19             
1 46609U 20061BH  22340.43340798  .00017868  00000+0  71244-3 0  9993
2 46609  97.3748  48.5697 0001833 199.4879 160.6289 15.25253248119567
FLOCK 4V-20             
1 46612U 20061BJ  22340.17716777  .00007350  00000+0  31318-3 0  9995
2 46612  97.3870  48.7897 0005197 244.9229 115.1469 15.23239423119004
FLOCK 4V-22             
1 46735U 20061BL  22339.92336910  .00008435  00000+0  34031-3 0  9999
2 46735  97.3687  47.3909 0004422 228.2309 131.8629 15.25039197117817
FLOCK 4V-23             
1 46737U 20061BM  22340.42819555  .00008228  00000+0  33712-3 0  9994
2 46737  97.3773  48.5593 0003313 189.8742 170.2431 15.24534009117839
FLOCK 4V-24             
1 46738U 20061BN  22340.60727553  .00015144  00000+0  60405-3 0  9995
2 46738  97.3851  49.5621 0004270 244.4509 115.6240 15.25271267117434
FLOCK 4V-25             
1 46812U 20061BP  22339.91661228  .00022106  00000+0  88503-3 0  9991
2 46812  97.3741  48.1299 0003849 207.6327 152.4730 15.25066554116973
FLOCK 4E'-1             
1 46813U 20077A   22340.34162634  .00012400  00000+0  47521-3 0  9996
2 46813  97.4005  41.0194 0010241 163.4652 196.6923 15.26611790116656
FLOCK 4E'-7             
1 46814U 20077B   22340.55509921  .00023328  00000+0  88774-3 0  9990
2 46814  97.4008  41.3667 0011050 158.1351 202.0362 15.26699792116695
FLOCK 4E'-9             
1 46815U 20077C   22340.45569254  .00007992  00000+0  35167-3 0  9992
2 46815  97.3990  40.1193 0011523 157.3617 202.8129 15.22066563116629
FLOCK 4E'-8             
1 46816U 20077D   22340.46214178  .00012777  00000+0  44167-3 0  9993
2 46816  97.4022  42.2682 0009258 136.3088 223.8887 15.30008280116731
FLOCK 4E'-5             
1 46817U 20077E   22340.45884549  .00017238  00000+0  65707-3 0  9998
2 46817  97.4034  42.0045 0012631 143.3682 216.8422 15.26689534116710
FLOCK 4E'-3             
1 46819U 20077G   22340.50747194  .00015496  00000+0  59113-3 0  9998
2 46819  97.4008  41.8441 0013361 139.4540 220.7697 15.26677649116723
FLOCK 4E'-2             
1 46820U 20077H   22340.44843990  .00008919  00000+0  35040-3 0  9999
2 46820  97.4073  42.3066 0013197 132.4030 227.8328 15.25843266116717
FLOCK 4E'-4             
1 46821U 20077J   22340.45312870  .00008417  00000+0  35333-3 0  9997
2 46821  97.4035  41.5968 0014269 128.8388 231.4125 15.23621905116655
FLOCK 4E'-6             
1 46822U 20077K   22340.12681732  .00007967  00000+0  34242-3 0  9995
2 46822  97.3989  40.2945 0011622 139.7219 220.4882 15.22870491116617
FLOCK 4V-26             
1 46825U 20061BQ  22340.15632209  .00012983  00000+0  51858-3 0  9995
2 46825  97.3852  49.0658 0003875 260.3790  99.7010 15.25260435116549
FLOCK 4S-22             
1 47452U 21006AR  22340.41975257  .00005912  00000+0  27960-3 0  9995
2 47452  97.4238  36.6209 0010891  43.4919 316.7172 15.19705162103358
FLOCK 4S-21             
1 47456U 21006AV  22340.42397929  .00005885  00000+0  27856-3 0  9997
2 47456  97.4243  36.6817 0010838  43.3410 316.8676 15.19680515103353
FLOCK 4S-11             
1 47462U 21006BB  22339.74624598  .00005206  00000+0  28061-3 0  9998
2 47462  97.4198  33.7156 0009399  70.8545 289.3704 15.15175557103129
FLOCK 4S-33             
1 47469U 21006BJ  22340.12207203  .00005976  00000+0  28316-3 0  9996
2 47469  97.4197  35.6274 0007484  60.0214 300.1763 15.19663331103284
FLOCK 4S-12             
1 47471U 21006BL  22339.72005067  .00006325  00000+0  29933-3 0  9992
2 47471  97.4227  35.5301 0008326  64.4342 295.7753 15.19677065103228
FLOCK 4S-13             
1 47472U 21006BM  22340.56482665  .00009060  00000+0  42706-3 0  9992
2 47472  97.4257  36.6148 0008298  59.2205 300.9846 15.19689145103359
FLOCK 4S-35             
1 47473U 21006BN  22339.73207206  .00027073  00000+0  11357-2 0  9997
2 47473  97.4223  36.2307 0006604  62.0794 298.1111 15.23439057103263
FLOCK 4S-8              
1 47474U 21006BP  22340.17101787  .00019270  00000+0  95771-3 0  9998
2 47474  97.4179  34.7714 0008325  63.6823 296.5265 15.17662270103249
FLOCK 4S-31             
1 47475U 21006BQ  22340.43774853  .00017798  00000+0  79968-3 0  9991
2 47475  97.4173  35.9565 0007589  55.4139 304.7811 15.21180630103341
FLOCK 4S-34             
1 47477U 21006BS  22340.43939570  .00006291  00000+0  29796-3 0  9992
2 47477  97.4234  36.3460 0007873  59.0329 301.1679 15.19654799103338
FLOCK 4S-9              
1 47478U 21006BT  22340.57161181  .00006569  00000+0  31083-3 0  9993
2 47478  97.4184  35.9729 0008367  62.2316 297.9767 15.19666387103355
FLOCK 4S-32             
1 47479U 21006BU  22340.40879397  .00023264  00000+0  95802-3 0  9991
2 47479  97.4168  36.4913 0006224  58.8527 301.3320 15.24097259103373
FLOCK 4S-39             
1 47490U 21006CF  22340.07409773  .00008265  00000+0  39142-3 0  9993
2 47490  97.4280  36.5278 0010233  48.7291 311.4823 15.19538634103299
FLOCK 4S-4              
1 47491U 21006CG  22340.06899014  .00008750  00000+0  41355-3 0  9992
2 47491  97.4155  35.4834 0009994  46.4162 313.7901 15.19594990103290
FLOCK 4S-17             
1 47492U 21006CH  22339.93520572  .00009274  00000+0  43822-3 0  9990
2 47492  97.4293  36.4686 0010097  49.1254 311.0854 15.19584676103274
FLOCK 4S-3              
1 47494U 21006CK  22340.11808565  .00019671  00000+0  96375-3 0  9998
2 47494  97.4161  34.9124 0009809  46.9284 313.2770 15.18146636103255
FLOCK 4S-27             
1 47495U 21006CL  22339.73289762  .00012368  00000+0  58218-3 0  9997
2 47495  97.4160  35.2333 0010527  48.3249 311.8885 15.19635310103240
FLOCK 4S-18             
1 47496U 21006CM  22339.73201838  .00014072  00000+0  66163-3 0  9998
2 47496  97.4270  36.1610 0010302  50.0535 310.1604 15.19645848103248
FLOCK 4S-2              
1 47498U 21006CP  22340.42852311  .00020929  00000+0  94637-3 0  9991
2 47498  97.4165  36.0410 0009072  44.3142 315.8818 15.20916193103359
